[{"OBJECT_NAME":"HULIANWANG DIGUI-01","OBJECT_ID":"2024-240A","EPOCH":"2026-03-07T03:49:24.906720","MEAN_MOTION":13.24420708,"ECCENTRICITY":0.0001954,"INCLINATION":86.5034,"RA_OF_ASC_NODE":17.6345,"ARG_OF_PERICENTER":85.2824,"MEAN_ANOMALY":274.8533,"EPHEMERIS_TYPE":0,"CLASSIFICATION_TYPE":"U","NORAD_CAT_ID":62323,"ELEMENT_SET_NO":999,"REV_AT_EPOCH":5913,"BSTAR":7.4102e-5,"MEAN_MOTION_DOT":4.6e-7,"MEAN_MOTION_DDOT":0},{"OBJECT_NAME":"HULIANWANG DIGUI-02","OBJECT_ID":"2024-240B","EPOCH":"2026-03-07T04:00:09.374688","MEAN_MOTION":13.24422274,"ECCENTRICITY":0.0001885,"INCLINATION":86.5062,"RA_OF_ASC_NODE":17.7626,"ARG_OF_PERICENTER":89.0957,"MEAN_ANOMALY":271.0393,"EPHEMERIS_TYPE":0,"CLASSIFICATION_TYPE":"U","NORAD_CAT_ID":62324,"ELEMENT_SET_NO":999,"REV_AT_EPOCH":5914,"BSTAR":7.7846e-5,"MEAN_MOTION_DOT":4.8e-7,"MEAN_MOTION_DDOT":0},{"OBJECT_NAME":"HULIANWANG DIGUI-03","OBJECT_ID":"2024-240C","EPOCH":"2026-03-07T03:38:21.905088","MEAN_MOTION":13.2442225,"ECCENTRICITY":0.0002027,"INCLINATION":86.5016,"RA_OF_ASC_NODE":17.5564,"ARG_OF_PERICENTER":83.6955,"MEAN_ANOMALY":276.441,"EPHEMERIS_TYPE":0,"CLASSIFICATION_TYPE":"U","NORAD_CAT_ID":62325,"ELEMENT_SET_NO":999,"REV_AT_EPOCH":5913,"BSTAR":5.1499e-5,"MEAN_MOTION_DOT":3.7e-7,"MEAN_MOTION_DDOT":0},{"OBJECT_NAME":"HULIANWANG DIGUI-04","OBJECT_ID":"2024-240D","EPOCH":"2026-03-07T03:27:32.080320","MEAN_MOTION":13.24421981,"ECCENTRICITY":0.0002065,"INCLINATION":86.5026,"RA_OF_ASC_NODE":17.5908,"ARG_OF_PERICENTER":84.4803,"MEAN_ANOMALY":275.6566,"EPHEMERIS_TYPE":0,"CLASSIFICATION_TYPE":"U","NORAD_CAT_ID":62326,"ELEMENT_SET_NO":999,"REV_AT_EPOCH":5913,"BSTAR":8.646e-5,"MEAN_MOTION_DOT":5.2e-7,"MEAN_MOTION_DDOT":0},{"OBJECT_NAME":"HULIANWANG DIGUI-05","OBJECT_ID":"2024-240E","EPOCH":"2026-03-07T03:16:43.631904","MEAN_MOTION":13.24421238,"ECCENTRICITY":0.0002095,"INCLINATION":86.5077,"RA_OF_ASC_NODE":17.8137,"ARG_OF_PERICENTER":83.4154,"MEAN_ANOMALY":276.7218,"EPHEMERIS_TYPE":0,"CLASSIFICATION_TYPE":"U","NORAD_CAT_ID":62327,"ELEMENT_SET_NO":999,"REV_AT_EPOCH":5913,"BSTAR":0.00012911,"MEAN_MOTION_DOT":7.0e-7,"MEAN_MOTION_DDOT":0},{"OBJECT_NAME":"HULIANWANG DIGUI-06","OBJECT_ID":"2024-240F","EPOCH":"2026-03-07T02:54:49.303008","MEAN_MOTION":13.24423081,"ECCENTRICITY":0.0002056,"INCLINATION":86.5015,"RA_OF_ASC_NODE":17.5365,"ARG_OF_PERICENTER":87.7998,"MEAN_ANOMALY":272.3371,"EPHEMERIS_TYPE":0,"CLASSIFICATION_TYPE":"U","NORAD_CAT_ID":62328,"ELEMENT_SET_NO":999,"REV_AT_EPOCH":5913,"BSTAR":0.00014922,"MEAN_MOTION_DOT":7.9e-7,"MEAN_MOTION_DDOT":0},{"OBJECT_NAME":"HULIANWANG DIGUI-07","OBJECT_ID":"2024-240G","EPOCH":"2026-03-07T02:44:05.160768","MEAN_MOTION":13.24421183,"ECCENTRICITY":0.0002036,"INCLINATION":86.4986,"RA_OF_ASC_NODE":17.4067,"ARG_OF_PERICENTER":86.2386,"MEAN_ANOMALY":273.898,"EPHEMERIS_TYPE":0,"CLASSIFICATION_TYPE":"U","NORAD_CAT_ID":62329,"ELEMENT_SET_NO":999,"REV_AT_EPOCH":5913,"BSTAR":0.00015114,"MEAN_MOTION_DOT":8.0e-7,"MEAN_MOTION_DDOT":0},{"OBJECT_NAME":"HULIANWANG DIGUI-08","OBJECT_ID":"2024-240H","EPOCH":"2026-03-07T03:05:52.361664","MEAN_MOTION":13.24421084,"ECCENTRICITY":0.0002141,"INCLINATION":86.5069,"RA_OF_ASC_NODE":17.7735,"ARG_OF_PERICENTER":84.5538,"MEAN_ANOMALY":275.584,"EPHEMERIS_TYPE":0,"CLASSIFICATION_TYPE":"U","NORAD_CAT_ID":62330,"ELEMENT_SET_NO":999,"REV_AT_EPOCH":5913,"BSTAR":0.0001192,"MEAN_MOTION_DOT":6.6e-7,"MEAN_MOTION_DDOT":0},{"OBJECT_NAME":"HULIANWANG DIGUI-09","OBJECT_ID":"2024-240J","EPOCH":"2026-03-07T02:33:06.098112","MEAN_MOTION":13.24422406,"ECCENTRICITY":0.0001998,"INCLINATION":86.5034,"RA_OF_ASC_NODE":17.6758,"ARG_OF_PERICENTER":88.5198,"MEAN_ANOMALY":271.6165,"EPHEMERIS_TYPE":0,"CLASSIFICATION_TYPE":"U","NORAD_CAT_ID":62331,"ELEMENT_SET_NO":999,"REV_AT_EPOCH":5912,"BSTAR":0.00014571,"MEAN_MOTION_DOT":7.7e-7,"MEAN_MOTION_DDOT":0},{"OBJECT_NAME":"HULIANWANG DIGUI-10","OBJECT_ID":"2024-240K","EPOCH":"2026-03-07T04:11:04.240032","MEAN_MOTION":13.24421847,"ECCENTRICITY":0.0001988,"INCLINATION":86.5065,"RA_OF_ASC_NODE":17.7759,"ARG_OF_PERICENTER":90.2557,"MEAN_ANOMALY":269.8805,"EPHEMERIS_TYPE":0,"CLASSIFICATION_TYPE":"U","NORAD_CAT_ID":62332,"ELEMENT_SET_NO":999,"REV_AT_EPOCH":5913,"BSTAR":0.00013081,"MEAN_MOTION_DOT":7.1e-7,"MEAN_MOTION_DDOT":0},{"OBJECT_NAME":"HULIANWANG DIGUI-11","OBJECT_ID":"2025-030A","EPOCH":"2026-03-06T23:47:23.648352","MEAN_MOTION":13.29338049,"ECCENTRICITY":7.71e-5,"INCLINATION":49.9992,"RA_OF_ASC_NODE":242.376,"ARG_OF_PERICENTER":173.7016,"MEAN_ANOMALY":186.3866,"EPHEMERIS_TYPE":0,"CLASSIFICATION_TYPE":"U","NORAD_CAT_ID":62971,"ELEMENT_SET_NO":999,"REV_AT_EPOCH":5226,"BSTAR":0.00010615,"MEAN_MOTION_DOT":-7.5e-7,"MEAN_MOTION_DDOT":0},{"OBJECT_NAME":"HULIANWANG DIGUI-12","OBJECT_ID":"2025-030B","EPOCH":"2026-03-06T23:59:15.431424","MEAN_MOTION":13.29340045,"ECCENTRICITY":8.81e-5,"INCLINATION":50.0008,"RA_OF_ASC_NODE":242.4656,"ARG_OF_PERICENTER":166.724,"MEAN_ANOMALY":193.3655,"EPHEMERIS_TYPE":0,"CLASSIFICATION_TYPE":"U","NORAD_CAT_ID":62972,"ELEMENT_SET_NO":999,"REV_AT_EPOCH":5226,"BSTAR":7.831e-5,"MEAN_MOTION_DOT":-8.8e-7,"MEAN_MOTION_DDOT":0},{"OBJECT_NAME":"HULIANWANG DIGUI-13","OBJECT_ID":"2025-030C","EPOCH":"2026-03-07T01:23:34.608480","MEAN_MOTION":13.29338061,"ECCENTRICITY":7.27e-5,"INCLINATION":50.001,"RA_OF_ASC_NODE":242.1213,"ARG_OF_PERICENTER":159.875,"MEAN_ANOMALY":200.2151,"EPHEMERIS_TYPE":0,"CLASSIFICATION_TYPE":"U","NORAD_CAT_ID":62973,"ELEMENT_SET_NO":999,"REV_AT_EPOCH":5227,"BSTAR":5.9642e-5,"MEAN_MOTION_DOT":-9.6e-7,"MEAN_MOTION_DDOT":0},{"OBJECT_NAME":"HULIANWANG DIGUI-14","OBJECT_ID":"2025-030D","EPOCH":"2026-03-07T00:47:34.545408","MEAN_MOTION":13.29337824,"ECCENTRICITY":7.95e-5,"INCLINATION":50.0016,"RA_OF_ASC_NODE":242.0092,"ARG_OF_PERICENTER":158.6017,"MEAN_ANOMALY":201.4888,"EPHEMERIS_TYPE":0,"CLASSIFICATION_TYPE":"U","NORAD_CAT_ID":62974,"ELEMENT_SET_NO":999,"REV_AT_EPOCH":5227,"BSTAR":6.5699e-5,"MEAN_MOTION_DOT":-9.4e-7,"MEAN_MOTION_DDOT":0},{"OBJECT_NAME":"HULIANWANG DIGUI-15","OBJECT_ID":"2025-030E","EPOCH":"2026-03-07T01:11:35.915136","MEAN_MOTION":13.29338099,"ECCENTRICITY":7.21e-5,"INCLINATION":50.0011,"RA_OF_ASC_NODE":242.0805,"ARG_OF_PERICENTER":167.9248,"MEAN_ANOMALY":192.1642,"EPHEMERIS_TYPE":0,"CLASSIFICATION_TYPE":"U","NORAD_CAT_ID":62975,"ELEMENT_SET_NO":999,"REV_AT_EPOCH":5227,"BSTAR":7.2087e-5,"MEAN_MOTION_DOT":-9.1e-7,"MEAN_MOTION_DDOT":0},{"OBJECT_NAME":"HULIANWANG DIGUI-16","OBJECT_ID":"2025-030F","EPOCH":"2026-03-07T04:11:59.275104","MEAN_MOTION":13.29338565,"ECCENTRICITY":8.17e-5,"INCLINATION":50.0034,"RA_OF_ASC_NODE":241.4792,"ARG_OF_PERICENTER":158.204,"MEAN_ANOMALY":201.8867,"EPHEMERIS_TYPE":0,"CLASSIFICATION_TYPE":"U","NORAD_CAT_ID":62976,"ELEMENT_SET_NO":999,"REV_AT_EPOCH":5229,"BSTAR":7.1553e-5,"MEAN_MOTION_DOT":-9.1e-7,"MEAN_MOTION_DDOT":0}]
