HULIANWANG DIGUI-01     
1 62323U 24240A   26066.15931605  .00000046  00000+0  74102-4 0  9995
2 62323  86.5034  17.6345 0001954  85.2824 274.8533 13.24420708 59139
HULIANWANG DIGUI-02     
1 62324U 24240B   26066.16677517  .00000048  00000+0  77846-4 0  9996
2 62324  86.5062  17.7626 0001885  89.0957 271.0393 13.24422274 59140
HULIANWANG DIGUI-03     
1 62325U 24240C   26066.15164242  .00000037  00000+0  51499-4 0  9996
2 62325  86.5016  17.5564 0002027  83.6955 276.4410 13.24422250 59138
HULIANWANG DIGUI-04     
1 62326U 24240D   26066.14412130  .00000052  00000+0  86460-4 0  9991
2 62326  86.5026  17.5908 0002065  84.4803 275.6566 13.24421981 59138
HULIANWANG DIGUI-05     
1 62327U 24240E   26066.13661611  .00000070  00000+0  12911-3 0  9990
2 62327  86.5077  17.8137 0002095  83.4154 276.7218 13.24421238 59134
HULIANWANG DIGUI-06     
1 62328U 24240F   26066.12140397  .00000079  00000+0  14922-3 0  9996
2 62328  86.5015  17.5365 0002056  87.7998 272.3371 13.24423081 59137
HULIANWANG DIGUI-07     
1 62329U 24240G   26066.11394862  .00000080  00000+0  15114-3 0  9990
2 62329  86.4986  17.4067 0002036  86.2386 273.8980 13.24421183 59138
HULIANWANG DIGUI-08     
1 62330U 24240H   26066.12907826  .00000066  00000+0  11920-3 0  9998
2 62330  86.5069  17.7735 0002141  84.5538 275.5840 13.24421084 59139
HULIANWANG DIGUI-09     
1 62331U 24240J   26066.10632058  .00000077  00000+0  14571-3 0  9996
2 62331  86.5034  17.6758 0001998  88.5198 271.6165 13.24422406 59126
HULIANWANG DIGUI-10     
1 62332U 24240K   26066.17435463  .00000071  00000+0  13081-3 0  9994
2 62332  86.5065  17.7759 0001988  90.2557 269.8805 13.24421847 59130
HULIANWANG DIGUI-11     
1 62971U 25030A   26065.99124593 -.00000075  00000+0  10615-3 0  9994
2 62971  49.9992 242.3760 0000771 173.7016 186.3866 13.29338049 52268
HULIANWANG DIGUI-12     
1 62972U 25030B   26065.99948416 -.00000088  00000+0  78310-4 0  9994
2 62972  50.0008 242.4656 0000881 166.7240 193.3655 13.29340045 52261
HULIANWANG DIGUI-13     
1 62973U 25030C   26066.05803945 -.00000096  00000+0  59642-4 0  9996
2 62973  50.0010 242.1213 0000727 159.8750 200.2151 13.29338061 52274
HULIANWANG DIGUI-14     
1 62974U 25030D   26066.03303872 -.00000094  00000+0  65699-4 0  9996
2 62974  50.0016 242.0092 0000795 158.6017 201.4888 13.29337824 52279
HULIANWANG DIGUI-15     
1 62975U 25030E   26066.04972124 -.00000091  00000+0  72087-4 0  9996
2 62975  50.0011 242.0805 0000721 167.9248 192.1642 13.29338099 52274
HULIANWANG DIGUI-16     
1 62976U 25030F   26066.17499161 -.00000091  00000+0  71553-4 0  9993
2 62976  50.0034 241.4792 0000817 158.2040 201.8867 13.29338565 52294
